HTV-X1                  
1 66174U 25241A   26073.34423285  .00013198  00000+0  56794-3 0  9992
2 66174  51.6357  50.7100 0005732 187.3443 172.7451 15.22910005 21660
SZ-21 MODULE            
1 66515U 25246C   26080.46684053  .00046337  00000+0  38373-3 0  9993
2 66515  41.4731 130.8135 0000395 237.2260 122.8544 15.69416667 19923
SHENZHOU-22             
1 66645U 25272A   26080.55163904  .00028655  00000+0  33070-3 0  9995
2 66645  41.4661 135.9532 0005431 348.5406  11.5308 15.61263554279107
SOYUZ-MS 28             
1 66664U 25275A   26080.51758049  .00014080  00000+0  26848-3 0  9997
2 66664  51.6347  13.8885 0006310 215.8915 144.1650 15.48422342557711
DUPLEX                  
1 66906U 98067XS  26080.52730255  .00038764  00000+0  53199-3 0  9999
2 66906  51.6307  10.2070 0003099 163.5582 196.5511 15.56940206 16971
ISS OBJECT XT           
1 66907U 98067XT  26080.03159806  .00186272  00000+0  13142-2 0  9994
2 66907  51.6258   7.6205 0005284 153.4746 206.6524 15.72936378 16964
ISS OBJECT XU           
1 66908U 98067XU  26080.02880812  .00200572  00000+0  14030-2 0  9999
2 66908  51.6252   7.5980 0005511 153.1323 206.9962 15.73089438 16965
SILVERSAT               
1 66909U 98067XV  26080.51222595  .00348638  00000+0  19791-2 0  9997
2 66909  51.6233   4.0686 0006023 160.8728 199.2500 15.77449180 17054
ISS OBJECT XW           
1 66910U 98067XW  26080.03258213  .00172990  00000+0  12769-2 0  9996
2 66910  51.6252   7.6193 0005851 154.3698 205.7591 15.71910553 16964
ISS OBJECT XX           
1 66911U 98067XX  26080.47988468  .00475515  00000+0  21416-2 0  9995
2 66911  51.6206   3.0741 0007593 163.5848 196.5401 15.82190962 17051
ISS OBJECT XY           
1 66912U 98067XY  26080.52366142  .00129023  00000+0  12252-2 0  9999
2 66912  51.6282   7.1735 0003878 158.9718 201.1438 15.65954710 17008
KNACKSAT-2              
1 67683U 98067XZ  26080.50860441  .00053549  00000+0  85041-3 0  9990
2 67683  51.6323  13.0810 0009748 227.9080 132.1082 15.52759437  6620
